{"fetched_at":"2026-07-21T07:06:28.574Z","source":"https://celestrak.org/NORAD/elements/gp.php?GROUP=oneweb&FORMAT=JSON","constellation":"oneweb","records":[{"OBJECT_NAME":"ONEWEB-0545","OBJECT_ID":"2022-166F","EPOCH":"2026-07-20T19:11:00.367584","CLASSIFICATION_TYPE":"U","MEAN_MOTION":13.21826283,"ECCENTRICITY":0.00014773,"INCLINATION":87.9231,"RA_OF_ASC_NODE":237.292,"ARG_OF_PERICENTER":92.9658,"MEAN_ANOMALY":267.1645,"EPHEMERIS_TYPE":0,"NORAD_CAT_ID":54647,"ELEMENT_SET_NO":999,"REV_AT_EPOCH":17594,"BSTAR":-0.000010186413,"MEAN_MOTION_DOT":9e-8,"MEAN_MOTION_DDOT":0},{"OBJECT_NAME":"ONEWEB-0580","OBJECT_ID":"2022-166G","EPOCH":"2026-07-20T20:23:39.469632","CLASSIFICATION_TYPE":"U","MEAN_MOTION":13.21823555,"ECCENTRICITY":0.00016918,"INCLINATION":87.9229,"RA_OF_ASC_NODE":237.2809,"ARG_OF_PERICENTER":90.8949,"MEAN_ANOMALY":269.2378,"EPHEMERIS_TYPE":0,"NORAD_CAT_ID":54648,"ELEMENT_SET_NO":999,"REV_AT_EPOCH":17599,"BSTAR":0.000008380432,"MEAN_MOTION_DOT":1.6e-7,"MEAN_MOTION_DDOT":0},{"OBJECT_NAME":"ONEWEB-0582","OBJECT_ID":"2022-166H","EPOCH":"2026-07-20T19:35:12.212448","CLASSIFICATION_TYPE":"U","MEAN_MOTION":13.21824259,"ECCENTRICITY":0.00015509,"INCLINATION":87.9232,"RA_OF_ASC_NODE":237.281,"ARG_OF_PERICENTER":94.2005,"MEAN_ANOMALY":265.9306,"EPHEMERIS_TYPE":0,"NORAD_CAT_ID":54649,"ELEMENT_SET_NO":999,"REV_AT_EPOCH":17596,"BSTAR":0.00018253576,"MEAN_MOTION_DOT":8.8e-7,"MEAN_MOTION_DDOT":0},{"OBJECT_NAME":"ONEWEB-0583","OBJECT_ID":"2022-166J","EPOCH":"2026-07-20T19:52:11.200224","CLASSIFICATION_TYPE":"U","MEAN_MOTION":13.21825994,"ECCENTRICITY":0.00019271,"INCLINATION":87.923,"RA_OF_ASC_NODE":237.3018,"ARG_OF_PERICENTER":94.7931,"MEAN_ANOMALY":265.3423,"EPHEMERIS_TYPE":0,"NORAD_CAT_ID":54650,"ELEMENT_SET_NO":999,"REV_AT_EPOCH":17597,"BSTAR":0.00011353411,"MEAN_MOTION_DOT":6e-7,"MEAN_MOTION_DDOT":0},{"OBJECT_NAME":"ONEWEB-0584","OBJECT_ID":"2022-166K","EPOCH":"2026-07-20T20:21:14.511168","CLASSIFICATION_TYPE":"U","MEAN_MOTION":13.21825672,"ECCENTRICITY":0.0002029,"INCLINATION":87.9225,"RA_OF_ASC_NODE":237.2826,"ARG_OF_PERICENTER":93.9049,"MEAN_ANOMALY":266.2317,"EPHEMERIS_TYPE":0,"NORAD_CAT_ID":54651,"ELEMENT_SET_NO":999,"REV_AT_EPOCH":17596,"BSTAR":-0.00010548919,"MEAN_MOTION_DOT":-3.1e-7,"MEAN_MOTION_DDOT":0},{"OBJECT_NAME":"ONEWEB-0585","OBJECT_ID":"2022-166L","EPOCH":"2026-07-20T02:45:06.981696","CLASSIFICATION_TYPE":"U","MEAN_MOTION":13.218243,"ECCENTRICITY":0.00022523,"INCLINATION":87.9234,"RA_OF_ASC_NODE":237.4169,"ARG_OF_PERICENTER":96.9902,"MEAN_ANOMALY":263.1488,"EPHEMERIS_TYPE":0,"NORAD_CAT_ID":54652,"ELEMENT_SET_NO":999,"REV_AT_EPOCH":17587,"BSTAR":0.00015074307,"MEAN_MOTION_DOT":7.5e-7,"MEAN_MOTION_DDOT":0},{"OBJECT_NAME":"ONEWEB-0586","OBJECT_ID":"2022-166M","EPOCH":"2026-07-20T03:04:30.080352","CLASSIFICATION_TYPE":"U","MEAN_MOTION":13.21824764,"ECCENTRICITY":0.00018848,"INCLINATION":87.9231,"RA_OF_ASC_NODE":237.4394,"ARG_OF_PERICENTER":97.2866,"MEAN_ANOMALY":262.8482,"EPHEMERIS_TYPE":0,"NORAD_CAT_ID":54653,"ELEMENT_SET_NO":999,"REV_AT_EPOCH":17587,"BSTAR":0.0002146262,"MEAN_MOTION_DOT":0.00000102,"MEAN_MOTION_DDOT":0},{"OBJECT_NAME":"ONEWEB-0587","OBJECT_ID":"2022-166N","EPOCH":"2026-07-20T08:46:03.746496","CLASSIFICATION_TYPE":"U","MEAN_MOTION":13.2182532,"ECCENTRICITY":0.00023116,"INCLINATION":87.9238,"RA_OF_ASC_NODE":237.3683,"ARG_OF_PERICENTER":94.7314,"MEAN_ANOMALY":265.4084,"EPHEMERIS_TYPE":0,"NORAD_CAT_ID":54654,"ELEMENT_SET_NO":999,"REV_AT_EPOCH":17606,"BSTAR":0.00020227432,"MEAN_MOTION_DOT":9.7e-7,"MEAN_MOTION_DDOT":0},{"OBJECT_NAME":"ONEWEB-0589","OBJECT_ID":"2022-166P","EPOCH":"2026-07-20T19:20:41.825760","CLASSIFICATION_TYPE":"U","MEAN_MOTION":13.21826496,"ECCENTRICITY":0.00012712,"INCLINATION":87.9226,"RA_OF_ASC_NODE":237.2889,"ARG_OF_PERICENTER":83.6908,"MEAN_ANOMALY":276.4371,"EPHEMERIS_TYPE":0,"NORAD_CAT_ID":54655,"ELEMENT_SET_NO":999,"REV_AT_EPOCH":17598,"BSTAR":0.000056453876,"MEAN_MOTION_DOT":3.6e-7,"MEAN_MOTION_DDOT":0},{"OBJECT_NAME":"ONEWEB-0590","OBJECT_ID":"2022-166Q","EPOCH":"2026-07-20T03:35:46.928544","CLASSIFICATION_TYPE":"U","MEAN_MOTION":13.21826336,"ECCENTRICITY":0.00021842,"INCLINATION":87.9239,"RA_OF_ASC_NODE":237.413,"ARG_OF_PERICENTER":84.0544,"MEAN_ANOMALY":276.0839,"EPHEMERIS_TYPE":0,"NORAD_CAT_ID":54656,"ELEMENT_SET_NO":999,"REV_AT_EPOCH":17588,"BSTAR":-0.000070906628,"MEAN_MOTION_DOT":-1.6e-7,"MEAN_MOTION_DDOT":0},{"OBJECT_NAME":"ONEWEB-0591","OBJECT_ID":"2022-166R","EPOCH":"2026-07-20T09:19:56.403264","CLASSIFICATION_TYPE":"U","MEAN_MOTION":13.21824329,"ECCENTRICITY":0.00020212,"INCLINATION":87.9228,"RA_OF_ASC_NODE":237.3772,"ARG_OF_PERICENTER":92.2877,"MEAN_ANOMALY":267.8489,"EPHEMERIS_TYPE":0,"NORAD_CAT_ID":54657,"ELEMENT_SET_NO":999,"REV_AT_EPOCH":17594,"BSTAR":-0.000189969,"MEAN_MOTION_DOT":-6.5e-7,"MEAN_MOTION_DDOT":0},{"OBJECT_NAME":"ONEWEB-0592","OBJECT_ID":"2022-166S","EPOCH":"2026-07-20T03:57:47.691648","CLASSIFICATION_TYPE":"U","MEAN_MOTION":13.2182428,"ECCENTRICITY":0.00020411,"INCLINATION":87.9238,"RA_OF_ASC_NODE":237.4029,"ARG_OF_PERICENTER":96.3795,"MEAN_ANOMALY":263.7571,"EPHEMERIS_TYPE":0,"NORAD_CAT_ID":54658,"ELEMENT_SET_NO":999,"REV_AT_EPOCH":17579,"BSTAR":-0.000024403805,"MEAN_MOTION_DOT":3e-8,"MEAN_MOTION_DDOT":0},{"OBJECT_NAME":"ONEWEB-0593","OBJECT_ID":"2022-166T","EPOCH":"2026-07-20T04:29:17.024640","CLASSIFICATION_TYPE":"U","MEAN_MOTION":13.21826126,"ECCENTRICITY":0.0001922,"INCLINATION":87.9235,"RA_OF_ASC_NODE":237.4083,"ARG_OF_PERICENTER":97.9997,"MEAN_ANOMALY":262.1355,"EPHEMERIS_TYPE":0,"NORAD_CAT_ID":54659,"ELEMENT_SET_NO":999,"REV_AT_EPOCH":17590,"BSTAR":0.000052705942,"MEAN_MOTION_DOT":3.5e-7,"MEAN_MOTION_DDOT":0},{"OBJECT_NAME":"ONEWEB-0594","OBJECT_ID":"2022-166U","EPOCH":"2026-07-20T19:30:22.657536","CLASSIFICATION_TYPE":"U","MEAN_MOTION":13.21824527,"ECCENTRICITY":0.00022422,"INCLINATION":87.9228,"RA_OF_ASC_NODE":237.2994,"ARG_OF_PERICENTER":98.0603,"MEAN_ANOMALY":262.0786,"EPHEMERIS_TYPE":0,"NORAD_CAT_ID":54660,"ELEMENT_SET_NO":999,"REV_AT_EPOCH":17600,"BSTAR":0.000012978168,"MEAN_MOTION_DOT":1.8e-7,"MEAN_MOTION_DDOT":0},{"OBJECT_NAME":"ONEWEB-0595","OBJECT_ID":"2022-166V","EPOCH":"2026-07-20T18:56:28.404960","CLASSIFICATION_TYPE":"U","MEAN_MOTION":13.21825809,"ECCENTRICITY":0.00022872,"INCLINATION":87.9239,"RA_OF_ASC_NODE":237.2874,"ARG_OF_PERICENTER":94.2231,"MEAN_ANOMALY":265.9165,"EPHEMERIS_TYPE":0,"NORAD_CAT_ID":54661,"ELEMENT_SET_NO":999,"REV_AT_EPOCH":17597,"BSTAR":-0.00020895891,"MEAN_MOTION_DOT":-7.3e-7,"MEAN_MOTION_DDOT":0},{"OBJECT_NAME":"ONEWEB-0596","OBJECT_ID":"2022-166W","EPOCH":"2026-07-20T03:48:06.060672","CLASSIFICATION_TYPE":"U","MEAN_MOTION":13.21824219,"ECCENTRICITY":0.00021478,"INCLINATION":87.923,"RA_OF_ASC_NODE":237.4223,"ARG_OF_PERICENTER":94.8837,"MEAN_ANOMALY":265.2542,"EPHEMERIS_TYPE":0,"NORAD_CAT_ID":54662,"ELEMENT_SET_NO":999,"REV_AT_EPOCH":17589,"BSTAR":0.00018287427,"MEAN_MOTION_DOT":8.9e-7,"MEAN_MOTION_DDOT":0}]}
