ONEWEB-0545             
1 54647U 22166F   26201.79930981  .00000009  00000+0 -10186-4 0  9999
2 54647  87.9231 237.2920 0001477  92.9658 267.1645 13.21826283175944
ONEWEB-0580             
1 54648U 22166G   26201.84976238  .00000016  00000+0  83804-5 0  9996
2 54648  87.9229 237.2809 0001691  90.8949 269.2378 13.21823555175996
ONEWEB-0582             
1 54649U 22166H   26201.81611357  .00000088  00000+0  18254-3 0  9996
2 54649  87.9232 237.2810 0001550  94.2005 265.9306 13.21824259175961
ONEWEB-0583             
1 54650U 22166J   26201.82790741  .00000060  00000+0  11353-3 0  9997
2 54650  87.9230 237.3018 0001927  94.7931 265.3423 13.21825994175975
ONEWEB-0584             
1 54651U 22166K   26201.84808462 -.00000031  00000+0 -10549-3 0  9996
2 54651  87.9225 237.2826 0002029  93.9049 266.2317 13.21825672175965
ONEWEB-0585             
1 54652U 22166L   26201.11466414  .00000075  00000+0  15074-3 0  9998
2 54652  87.9234 237.4169 0002252  96.9902 263.1488 13.21824300175879
ONEWEB-0586             
1 54653U 22166M   26201.12812593  .00000102  00000+0  21463-3 0  9993
2 54653  87.9231 237.4394 0001884  97.2866 262.8482 13.21824764175874
ONEWEB-0587             
1 54654U 22166N   26201.36532114  .00000097  00000+0  20227-3 0  9998
2 54654  87.9238 237.3683 0002311  94.7314 265.4084 13.21825320176066
ONEWEB-0589             
1 54655U 22166P   26201.80603965  .00000036  00000+0  56454-4 0  9996
2 54655  87.9226 237.2889 0001271  83.6908 276.4371 13.21826496175987
ONEWEB-0590             
1 54656U 22166Q   26201.14984871 -.00000016  00000+0 -70907-4 0  9991
2 54656  87.9239 237.4130 0002184  84.0544 276.0839 13.21826336175885
ONEWEB-0591             
1 54657U 22166R   26201.38884726 -.00000065  00000+0 -18997-3 0  9990
2 54657  87.9228 237.3772 0002021  92.2877 267.8489 13.21824329175941
ONEWEB-0592             
1 54658U 22166S   26201.16513532  .00000003  00000+0 -24404-4 0  9993
2 54658  87.9238 237.4029 0002041  96.3795 263.7571 13.21824280175791
ONEWEB-0593             
1 54659U 22166T   26201.18700260  .00000035  00000+0  52706-4 0  9992
2 54659  87.9235 237.4083 0001922  97.9997 262.1355 13.21826126175904
ONEWEB-0594             
1 54660U 22166U   26201.81276224  .00000018  00000+0  12978-4 0  9990
2 54660  87.9228 237.2994 0002242  98.0603 262.0786 13.21824527176001
ONEWEB-0595             
1 54661U 22166V   26201.78921765 -.00000073  00000+0 -20896-3 0  9994
2 54661  87.9239 237.2874 0002287  94.2231 265.9165 13.21825809175977
ONEWEB-0596             
1 54662U 22166W   26201.15840348  .00000089  00000+0  18287-3 0  9999
2 54662  87.9230 237.4223 0002147  94.8837 265.2542 13.21824219175899
